NORAD_CAT_ID,OBJECT_NAME,OBJECT_TYPE,EPOCH,MEAN_MOTION,ECCENTRICITY,INCLINATION,RA_OF_ASC_NODE,ARG_OF_PERICENTER,MEAN_ANOMALY,BSTAR,MEAN_MOTION_DOT,MEAN_MOTION_DDOT,TLE_LINE0,TLE_LINE1,TLE_LINE2,SEMIMAJOR_AXIS,PERIOD,APOGEE,PERIGEE,DECAYED
53608.0,STARLINK-4647,PAYLOAD,2023-01-28 03:38:06,15.08852242,9.33e-05,53.2175,296.4288,75.3344,284.7751,0.0013895,0.00021902,0.0,0 STARLINK-4647,1 53608U 22104W   23028.15146026  .00021902  00000-0  13895-2 0  9993,2 53608  53.2175 296.4288 0000933  75.3344 284.7751 15.08852242 23485,6917.843000000001,95.437,540.3530000000001,539.063,0.0
53608.0,STARLINK-4647,PAYLOAD,2023-01-28 17:56:34,15.08834171,0.0001249,53.2177,293.7512,84.8405,275.273,0.0013086,0.00020596,0.0,0 STARLINK-4647,1 53608U 22104W   23028.74762506  .00020596  00000-0  13086-2 0  9995,2 53608  53.2177 293.7512 0001249  84.8405 275.2730 15.08834171 23574,6917.898,95.438,540.627,538.899,0.0
53608.0,STARLINK-4647,PAYLOAD,2023-01-28 21:07:21,15.08837507,0.0001033,53.2178,293.1563,87.274,272.837,0.00095426,0.00014931,0.0,0 STARLINK-4647,1 53608U 22104W   23028.88010441  .00014931  00000-0  95426-3 0  9999,2 53608  53.2178 293.1563 0001033  87.2740 272.8370 15.08837507 24160,6917.888,95.438,540.468,539.038,0.0
53608.0,STARLINK-4647,PAYLOAD,2023-01-29 03:28:53,15.08841299,0.0001076,53.2179,291.9671,70.0617,290.0491,0.00091557,0.00014314,0.0,0 STARLINK-4647,1 53608U 22104W   23029.14506535  .00014314  00000-0  91557-3 0  9999,2 53608  53.2179 291.9671 0001076  70.0617 290.0491 15.08841299 23637,6917.876,95.437,540.486,538.997,0.0
53608.0,STARLINK-4647,PAYLOAD,2023-01-29 17:47:21,15.08838498,8.9e-05,53.2174,289.2899,75.746,284.3631,0.00044551,6.809e-05,0.0,0 STARLINK-4647,1 53608U 22104W   23029.74122618  .00006809  00000-0  44551-3 0  9993,2 53608  53.2174 289.2899 0000890  75.7460 284.3631 15.08838498 23724,6917.885,95.438,540.366,539.134,0.0
53608.0,STARLINK-4647,PAYLOAD,2023-01-29 20:58:08,15.08841576,0.0001032,53.2177,288.6943,92.6729,267.4381,0.00043289,6.609e-05,0.0,0 STARLINK-4647,1 53608U 22104W   23029.87370536  .00006609  00000-0  43289-3 0  9996,2 53608  53.2177 288.6943 0001032  92.6729 267.4381 15.08841576 24316,6917.876,95.437,540.454,539.027,0.0
53608.0,STARLINK-4647,PAYLOAD,2023-01-30 03:19:40,15.08849385,9.52e-05,53.217,287.5066,70.589,289.5205,0.00061549,9.524e-05,0.0,0 STARLINK-4647,1 53608U 22104W   23030.13866436  .00009524  00000-0  61549-3 0  9994,2 53608  53.2170 287.5066 0000952  70.5890 289.5205 15.08849385 24357,6917.852,95.437,540.375,539.058,0.0
53608.0,STARLINK-4647,PAYLOAD,2023-01-30 22:24:18,15.08836102,0.000107,53.2172,283.9385,71.4254,288.6855,0.00010438,1.374e-05,0.0,0 STARLINK-4647,1 53608U 22104W   23030.93354700  .00001374  00000-0  10438-3 0  9994,2 53608  53.2172 283.9385 0001070  71.4254 288.6855 15.08836102 24476,6917.892,95.438,540.498,539.017,0.0
53608.0,STARLINK-4647,PAYLOAD,2023-01-31 01:35:04,15.08841575,0.0001089,53.2174,283.3439,69.364,290.7469,0.00011236,1.501e-05,0.0,0 STARLINK-4647,1 53608U 22104W   23031.06602577  .00001501  00000-0  11236-3 0  9996,2 53608  53.2174 283.3439 0001089  69.3640 290.7469 15.08841575 23921,6917.876,95.437,540.494,538.987,0.0
53608.0,STARLINK-4647,PAYLOAD,2023-02-01 01:25:51,15.08849273,0.000109,53.2165,278.8837,79.4456,280.6659,0.0002089,3.039e-05,0.0,0 STARLINK-4647,1 53608U 22104W   23032.05962195  .00003039  00000-0  20890-3 0  9995,2 53608  53.2165 278.8837 0001090  79.4456 280.6659 15.08849273 24643,6917.852,95.437,540.471,538.963,0.0
53608.0,STARLINK-4647,PAYLOAD,2023-02-02 01:16:38,15.08841901,0.0001094,53.2165,274.4234,82.2342,277.8774,2.1295e-05,5.1e-07,0.0,0 STARLINK-4647,1 53608U 22104W   23033.05322507  .00000051  00000-0  21295-4 0  9995,2 53608  53.2165 274.4234 0001094  82.2342 277.8774 15.08841901 24226,6917.875,95.437,540.496,538.983,0.0
53608.0,STARLINK-4647,PAYLOAD,2023-02-03 01:07:25,15.08843091,0.0001414,53.215,269.9637,79.8873,280.2279,0.00018057,2.587e-05,0.0,0 STARLINK-4647,1 53608U 22104W   23034.04682547  .00002587  00000-0  18057-3 0  9995,2 53608  53.2150 269.9637 0001414  79.8873 280.2279 15.08843091 24942,6917.871,95.437,540.714,538.758,0.0
53608.0,STARLINK-4647,PAYLOAD,2023-02-03 18:36:40,15.08836129,0.0001426,53.215,266.6939,70.3105,289.8041,3.6268e-05,2.89e-06,0.0,0 STARLINK-4647,1 53608U 22104W   23034.77547107  .00000289  00000-0  36268-4 0  9999,2 53608  53.2150 266.6939 0001426  70.3105 289.8041 15.08836129 24483,6917.892,95.438,540.744,538.771,0.0
53608.0,STARLINK-4647,PAYLOAD,2023-02-04 12:05:55,15.08839679,0.0001466,53.2151,263.4227,65.7987,294.3158,7.7777e-05,9.5e-06,0.0,0 STARLINK-4647,1 53608U 22104W   23035.50411048  .00000950  00000-0  77777-4 0  9990,2 53608  53.2151 263.4227 0001466  65.7987 294.3158 15.08839679 25168,6917.881,95.438,540.761,538.732,0.0
53608.0,STARLINK-4647,PAYLOAD,2023-02-04 21:38:13,15.08845435,0.0001141,53.2168,261.6367,82.4912,277.6209,6.5119e-05,7.49e-06,0.0,0 STARLINK-4647,1 53608U 22104W   23035.90154493  .00000749  00000-0  65119-4 0  9995,2 53608  53.2168 261.6367 0001141  82.4912 277.6209 15.08845435 24656,6917.864,95.437,540.518,538.939,0.0
53608.0,STARLINK-4647,PAYLOAD,2023-02-05 15:07:28,15.08835131,0.0001141,53.2165,258.3661,83.6949,276.4174,5.4518e-05,5.8e-06,0.0,0 STARLINK-4647,1 53608U 22104W   23036.63019277  .00000580  00000-0  54518-4 0  9990,2 53608  53.2165 258.3661 0001141  83.6949 276.4174 15.08835131 24768,6917.895,95.438,540.55,538.971,0.0
53608.0,STARLINK-4647,PAYLOAD,2023-02-05 21:29:00,15.08838237,0.000114,53.2166,257.1765,85.4235,274.6887,6.8569e-05,8.04e-06,0.0,0 STARLINK-4647,1 53608U 22104W   23036.89515043  .00000804  00000-0  68569-4 0  9990,2 53608  53.2166 257.1765 0001140  85.4235 274.6887 15.08838237 25377,6917.886,95.438,540.539,538.962,0.0
53608.0,STARLINK-4647,PAYLOAD,2023-02-06 21:19:47,15.08845465,0.000111,53.2165,252.7164,86.99,273.1219,0.0001146,1.537e-05,0.0,0 STARLINK-4647,1 53608U 22104W   23037.88874627  .00001537  00000-0  11460-3 0  9997,2 53608  53.2165 252.7164 0001110  86.9900 273.1219 15.08845465 24959,6917.864,95.437,540.497,538.961,0.0
53608.0,STARLINK-4647,PAYLOAD,2023-02-07 13:13:39,15.08835979,0.0001085,53.2163,249.7433,87.7713,272.3404,8.7546e-05,1.106e-05,0.0,0 STARLINK-4647,1 53608U 22104W   23038.55115384  .00001106  00000-0  87546-4 0  9991,2 53608  53.2163 249.7433 0001085  87.7713 272.3404 15.08835979 25052,6917.893,95.438,540.508,539.007,0.0
53608.0,STARLINK-4647,PAYLOAD,2023-02-07 21:10:35,15.08834994,0.0001039,53.2164,248.256,81.7621,278.3489,6.6589e-05,7.72e-06,0.0,0 STARLINK-4647,1 53608U 22104W   23038.88235570  .00000772  00000-0  66589-4 0  9999,2 53608  53.2164 248.2560 0001039  81.7621 278.3489 15.08834994 25672,6917.896,95.438,540.479,539.042,0.0
53608.0,STARLINK-4647,PAYLOAD,2023-02-08 19:25:59,15.08842153,0.000101,53.2166,244.0928,83.5612,276.5495,2.8459e-05,1.65e-06,0.0,0 STARLINK-4647,1 53608U 22104W   23039.80971383  .00000165  00000-0  28459-4 0  9991,2 53608  53.2166 244.0928 0001010  83.5612 276.5495 15.08842153 25241,6917.874,95.437,540.438,539.04,0.0
53608.0,STARLINK-4647,PAYLOAD,2023-02-08 21:01:22,15.0884423,0.000101,53.2166,243.7955,83.8413,276.2694,4.62e-05,4.48e-06,0.0,0 STARLINK-4647,1 53608U 22104W   23039.87595221  .00000448  00000-0  46200-4 0  9999,2 53608  53.2166 243.7955 0001010  83.8413 276.2694 15.08844230 25829,6917.867,95.437,540.431,539.034,0.0
53608.0,STARLINK-4647,PAYLOAD,2023-02-09 06:33:41,15.08844458,0.0001031,53.2162,242.0105,92.2527,267.8583,2.3736e-05,9e-07,0.0,0 STARLINK-4647,1 53608U 22104W   23040.27339176  .00000090  00000-0  23736-4 0  9992,2 53608  53.2162 242.0105 0001031  92.2527 267.8583 15.08844458 25888,6917.867,95.437,540.445,539.019,0.0
53608.0,STARLINK-4647,PAYLOAD,2023-02-09 19:16:46,15.08840967,0.0001033,53.2163,239.6313,91.4147,268.6964,9.4037e-05,1.209e-05,0.0,0 STARLINK-4647,1 53608U 22104W   23040.80331351  .00001209  00000-0  94037-4 0  9993,2 53608  53.2163 239.6313 0001033  91.4147 268.6964 15.08840967 25965,6917.877,95.437,540.457,539.028,0.0
53608.0,STARLINK-4647,PAYLOAD,2023-02-09 20:52:09,15.0884368,0.0001084,53.2163,239.3338,90.2482,269.8634,0.00011333,1.516e-05,0.0,0 STARLINK-4647,1 53608U 22104W   23040.86955171  .00001516  00000-0  11333-3 0  9999,2 53608  53.2163 239.3338 0001084  90.2482 269.8634 15.08843680 25405,6917.869,95.437,540.484,538.984,0.0
53608.0,STARLINK-4647,PAYLOAD,2023-02-10 23:53:42,15.08846715,9.85e-05,53.2169,234.2777,94.7487,265.3618,8.3354e-05,1.039e-05,0.0,0 STARLINK-4647,1 53608U 22104W   23041.99563092  .00001039  00000-0  83354-4 0  9994,2 53608  53.2169 234.2777 0000985  94.7487 265.3618 15.08846715 25578,6917.86,95.437,540.406,539.043,0.0
53608.0,STARLINK-4647,PAYLOAD,2023-02-11 09:26:02,15.08835897,0.0001188,53.2161,232.4941,88.3353,271.7775,2.2003e-05,6.2e-07,0.0,0 STARLINK-4647,1 53608U 22104W   23042.39307994  .00000062  00000-0  22003-4 0  9995,2 53608  53.2161 232.4941 0001188  88.3353 271.7775 15.08835897 25631,6917.893,95.438,540.58,538.936,0.0
53608.0,STARLINK-4647,PAYLOAD,2023-02-11 12:36:48,15.08838405,0.0001221,53.2159,231.8994,87.9879,272.1253,2.8013e-05,1.58e-06,0.0,0 STARLINK-4647,1 53608U 22104W   23042.52555877  .00000158  00000-0  28013-4 0  9998,2 53608  53.2159 231.8994 0001221  87.9879 272.1253 15.08838405 26225,6917.885,95.438,540.595,538.906,0.0
53608.0,STARLINK-4647,PAYLOAD,2023-02-11 20:33:43,15.08846697,0.0001182,53.2169,230.4129,82.5205,277.5921,7.9081e-05,9.71e-06,0.0,0 STARLINK-4647,1 53608U 22104W   23042.85675283  .00000971  00000-0  79081-4 0  9992,2 53608  53.2169 230.4129 0001182  82.5205 277.5921 15.08846697 25706,6917.86,95.437,540.543,538.907,0.0
53608.0,STARLINK-4647,PAYLOAD,2023-02-12 02:55:16,15.08832246,0.0001281,53.2157,229.2238,84.2621,275.8517,-1.5049e-05,-5.27e-06,0.0,0 STARLINK-4647,1 53608U 22104W   23043.12172221 -.00000527  00000-0 -15049-4 0  9990,2 53608  53.2157 229.2238 0001281  84.2621 275.8517 15.08832246 25742,6917.904,95.438,540.655,538.883,0.0
